     2.10           G: GLONASS NAV DATA                     RINEX VERSION / TYPE
teqc  2015Jun23                         20220225 01:25:41UTCPGM / RUN BY / DATE
Linux 2.4.21-27.ELsmp|Opteron|gcc -static|Linux x86_64|=+   COMMENT
  2022     2     1    0.000000000000D+00                    CORR TO SYSTEM TIME
                                                            END OF HEADER
 8 22  2  2  0 15  0.0-6.335135549307D-05 0.000000000000D+00 0.000000000000D+00
   -1.497592529297D+04-2.360224723816D+00-9.313225746155D-10 0.000000000000D+00
    1.078866406250D+04 4.770421981812D-01-1.862645149231D-09 6.000000000000D+00
    1.764775195312D+04-2.304218292236D+00-2.793967723846D-09 0.000000000000D+00
10 22  2  2  0 15  0.0-7.943157106638D-05-0.000000000000D+00 0.000000000000D+00
   -1.340585205078D+04 9.983034133911D-01 0.000000000000D+00 0.000000000000D+00
    9.259196289062D+03-2.496208190918D+00-9.313225746155D-10-7.000000000000D+00
    1.958375683594D+04 1.869400024414D+00-2.793967723846D-09 0.000000000000D+00
12 22  2  2  0 15  0.0 1.705251634121D-05-0.000000000000D+00 0.000000000000D+00
   -1.512448730469D+03-5.235872268677D-01-0.000000000000D+00 0.000000000000D+00
    2.177076953125D+04 1.734147071838D+00-2.793967723846D-09-1.000000000000D+00
   -1.316637548828D+04 2.925433158875D+00 9.313225746155D-10 0.000000000000D+00
22 22  2  2  0 15  0.0-1.619681715965D-04-1.818989403546D-12 0.000000000000D+00
   -2.563584960938D+03-1.784476280212D+00-2.793967723846D-09 0.000000000000D+00
    1.268235009766D+04-2.430896759033D+00-1.862645149231D-09-3.000000000000D+00
   -2.201133105469D+04-1.183913230896D+00 1.862645149231D-09 0.000000000000D+00
23 22  2  2  0 15  0.0-2.885423600674D-05-9.094947017729D-13 0.000000000000D+00
    1.237849560547D+04-4.229125976562D-01 2.793967723846D-09 0.000000000000D+00
    2.110348291016D+04-9.276046752930D-01-1.862645149231D-09 3.000000000000D+00
   -7.231632324219D+03-3.431096076965D+00 1.862645149231D-09 0.000000000000D+00
24 22  2  2  0 15  0.0 7.831491529942D-05 1.818989403546D-12 0.000000000000D+00
    1.765244140625D+04 7.939577102661D-01 4.656612873077D-09 0.000000000000D+00
    1.667143017578D+04 7.362594604492D-01-9.313225746155D-10 2.000000000000D+00
    7.826040527344D+03-3.369229316711D+00 9.313225746155D-10 0.000000000000D+00
 8 22  2  2  0 45  0.0-6.335042417049D-05 0.000000000000D+00 1.800000000000D+03
   -1.860371582031D+04-1.643514633179D+00-1.862645149231D-09 0.000000000000D+00
    1.181660986328D+04 6.277704238892D-01-1.862645149231D-09 6.000000000000D+00
    1.287330175781D+04-2.966549873352D+00-3.725290298462D-09 0.000000000000D+00
23 22  2  2  0 45  0.0-2.885702997446D-05-9.094947017729D-13 1.800000000000D+03
    1.099174218750D+04-1.130935668945D+00 9.313225746155D-10 0.000000000000D+00
    1.896833154297D+04-1.401700973511D+00-1.862645149231D-09 3.000000000000D+00
   -1.304837744141D+04-2.990009307861D+00 1.862645149231D-09 0.000000000000D+00
12 22  2  2  0 45  0.0 1.705251634121D-05-0.000000000000D+00 1.800000000000D+03
   -2.043324218750D+03-9.416580200195D-02-9.313225746155D-10 0.000000000000D+00
    2.428872705078D+04 1.030576705933D+00-2.793967723846D-09-1.000000000000D+00
   -7.458561035156D+03 3.375285148621D+00 0.000000000000D+00 0.000000000000D+00
22 22  2  2  0 45  0.0-1.619718968868D-04-1.818989403546D-12 1.800000000000D+03
   -6.228898437500D+03-2.259543418884D+00-3.725290298462D-09 0.000000000000D+00
    8.429776367188D+03-2.249624252319D+00-9.313225746155D-10-3.000000000000D+00
   -2.326610253906D+04-2.009716033936D-01 1.862645149231D-09 0.000000000000D+00
24 22  2  2  0 45  0.0 7.831770926714D-05 1.818989403546D-12 1.800000000000D+03
    1.864943652344D+04 2.764558792114D-01 3.725290298462D-09 0.000000000000D+00
    1.733045019531D+04 1.490783691406D-02-1.862645149231D-09 2.000000000000D+00
    1.537229980469D+03-3.572978973389D+00 1.862645149231D-09 0.000000000000D+00
 1 22  2  2  0 45  0.0 7.069669663906D-06 0.000000000000D+00 3.060000000000D+03
   -3.418793945312D+03-2.870671272278D+00 1.862645149231D-09 0.000000000000D+00
    1.224461083984D+04 9.613304138184D-01-9.313225746155D-10 1.000000000000D+00
    2.211712890625D+04-9.750375747681D-01-1.862645149231D-09 0.000000000000D+00
 8 22  2  2  1 15  0.0-6.335042417049D-05-0.000000000000D+00 3.600000000000D+03
   -2.082714013672D+04-8.182449340820D-01-4.656612873077D-09 0.000000000000D+00
    1.290231591797D+04 5.360946655273D-01-9.313225746155D-10 6.000000000000D+00
    7.105348632812D+03-3.400835990906D+00-2.793967723846D-09 0.000000000000D+00
 1 22  2  2  1 15  0.0 7.069669663906D-06 0.000000000000D+00 3.600000000000D+03
   -8.181615234375D+03-2.383598327637D+00-0.000000000000D+00 0.000000000000D+00
    1.422990917969D+04 1.212032318115D+00-1.862645149231D-09 1.000000000000D+00
    1.953012646484D+04-1.880743026733D+00-2.793967723846D-09 0.000000000000D+00
12 22  2  2  1 15  0.0 1.705158501863D-05-0.000000000000D+00 3.600000000000D+03
   -1.972093261719D+03 1.354684829712D-01-9.313225746155D-10 0.000000000000D+00
    2.539076367188D+04 1.776971817017D-01-2.793967723846D-09-1.000000000000D+00
   -1.172752929688D+03 3.563487052917D+00-0.000000000000D+00 0.000000000000D+00
23 22  2  2  1 15  0.0-2.885889261961D-05-9.094947017729D-13 3.600000000000D+03
    8.294741210938D+03-1.859333038330D+00-9.313225746155D-10 0.000000000000D+00
    1.622307519531D+04-1.601182937622D+00-1.862645149231D-09 3.000000000000D+00
   -1.785667871094D+04-2.317879676819D+00 1.862645149231D-09 0.000000000000D+00
24 22  2  2  1 15  0.0 7.832050323486D-05 1.818989403546D-12 3.600000000000D+03
    1.853499169922D+04-4.277000427246D-01 2.793967723846D-09 0.000000000000D+00
    1.682164208984D+04-5.465574264526D-01-2.793967723846D-09 2.000000000000D+00
   -4.870437500000D+03-3.500372886658D+00 1.862645149231D-09 0.000000000000D+00
13 22  2  2  1 15  0.0-1.777708530426D-05-0.000000000000D+00 3.750000000000D+03
    6.284113281250D+03-9.435176849365D-02-9.313225746155D-10 0.000000000000D+00
    1.845004541016D+04 2.251419067383D+00-1.862645149231D-09-2.000000000000D+00
   -1.647238769531D+04 2.489417076111D+00 1.862645149231D-09 0.000000000000D+00
 8 22  2  2  1 45  0.0-6.335135549307D-05-0.000000000000D+00 5.400000000000D+03
   -2.155314746094D+04 9.002685546875D-04-5.587935447693D-09 0.000000000000D+00
    1.359529296875D+04 1.938600540161D-01 0.000000000000D+00 6.000000000000D+00
    7.881499023438D+02-3.572704315186D+00-2.793967723846D-09 0.000000000000D+00
 1 22  2  2  1 45  0.0 7.069669663906D-06 0.000000000000D+00 5.400000000000D+03
   -1.189077929688D+04-1.715772628784D+00-1.862645149231D-09 0.000000000000D+00
    1.647163574219D+04 1.236872673035D+00-9.313225746155D-10 1.000000000000D+00
    1.543390380859D+04-2.641076087952D+00-2.793967723846D-09 0.000000000000D+00
12 22  2  2  1 45  0.0 1.705158501863D-05-0.000000000000D+00 5.400000000000D+03
   -1.699744140625D+03 1.264381408691D-01-9.313225746155D-10 0.000000000000D+00
    2.490469433594D+04-7.145271301270D-01-2.793967723846D-09-1.000000000000D+00
    5.203936035156D+03 3.475653648376D+00-9.313225746155D-10 0.000000000000D+00
13 22  2  2  1 45  0.0-1.777801662683D-05-0.000000000000D+00 5.400000000000D+03
    6.405085449219D+03 1.973619461060D-01-9.313225746155D-10 0.000000000000D+00
    2.190227197266D+04 1.552108764648D+00-2.793967723846D-09-2.000000000000D+00
   -1.141317529297D+04 3.095531463623D+00 9.313225746155D-10 0.000000000000D+00
23 22  2  2  1 45  0.0-2.886168658733D-05-9.094947017729D-13 5.400000000000D+03
    4.356278320312D+03-2.491228103638D+00-2.793967723846D-09 0.000000000000D+00
    1.337098046875D+04-1.524052619934D+00-9.313225746155D-10 3.000000000000D+00
   -2.128500439453D+04-1.466650009155D+00 1.862645149231D-09 0.000000000000D+00
24 22  2  2  1 45  0.0 7.832329720259D-05 1.818989403546D-12 5.400000000000D+03
    1.705398193359D+04-1.224101066589D+00 9.313225746155D-10 0.000000000000D+00
    1.550221826172D+04-8.771409988403D-01-2.793967723846D-09 2.000000000000D+00
   -1.090104980469D+04-3.156706809998D+00 1.862645149231D-09 0.000000000000D+00
 8 22  2  2  2 15  0.0-6.335228681564D-05-0.000000000000D+00 7.200000000000D+03
   -2.089459667969D+04 7.029533386230D-01-6.519258022308D-09 0.000000000000D+00
    1.347126611328D+04-3.619365692139D-01 1.862645149231D-09 6.000000000000D+00
   -5.589963867188D+03-3.467926979065D+00-1.862645149231D-09 0.000000000000D+00
 1 22  2  2  2 15  0.0 7.069669663906D-06 0.000000000000D+00 7.200000000000D+03
   -1.431263378906D+04-9.719495773315D-01-3.725290298462D-09 0.000000000000D+00
    1.852496875000D+04 1.000424385071D+00-0.000000000000D+00 1.000000000000D+00
    1.014502343750D+04-3.197322845459D+00-2.793967723846D-09 0.000000000000D+00
12 22  2  2  2 15  0.0 1.705158501863D-05 0.000000000000D+00 7.200000000000D+03
   -1.657664550781D+03-1.156988143921D-01-9.313225746155D-10 0.000000000000D+00
    2.286507226562D+04-1.529485702515D+00-1.862645149231D-09-1.000000000000D+00
    1.117784277344D+04 3.118926048279D+00-1.862645149231D-09 0.000000000000D+00
13 22  2  2  2 15  0.0-1.777894794941D-05-0.000000000000D+00 7.200000000000D+03
    6.864394531250D+03 2.733888626099D-01-1.862645149231D-09 0.000000000000D+00
    2.395128417969D+04 7.096061706543D-01-2.793967723846D-09-2.000000000000D+00
   -5.472157226562D+03 3.462792396545D+00 0.000000000000D+00 0.000000000000D+00
23 22  2  2  2 15  0.0-2.886354923248D-05-9.094947017729D-13 7.200000000000D+03
   -5.519042968750D+02-2.921147346497D+00-3.725290298462D-09 0.000000000000D+00
    1.087676171875D+04-1.214424133301D+00 0.000000000000D+00 3.000000000000D+00
   -2.306842578125D+04-5.020589828491D-01 1.862645149231D-09 0.000000000000D+00
24 22  2  2  2 15  0.0 7.832609117031D-05 1.818989403546D-12 7.200000000000D+03
    1.414091015625D+04-1.999348640442D+00-9.313225746155D-10 0.000000000000D+00
    1.382116552734D+04-9.472332000732D-01-1.862645149231D-09 2.000000000000D+00
   -1.608740429688D+04-2.568387031555D+00 1.862645149231D-09 0.000000000000D+00
